[62ptsuchinshan]
absolute_magnitude             = 8
albedo                         = 0.1
coord_func                     = comet_orbit
dust_brightnessfactor          = 1.5
dust_lengthfactor              = 0.40000000000000002
dust_widthfactor               = 1.5
name                           = 62P/Tsuchinshan
iau_designation                = P/1965 A1
orbit_ArgOfPericenter          = 47.3166
orbit_AscendingNode            = 68.6784
orbit_Eccentricity             = 0.624902
orbit_Epoch                    = 2460029.5
orbit_Inclination              = 4.7363
orbit_PericenterDistance       = 1.264112
orbit_TimeAtPericenter         = 2460303.5244
orbit_good                     = 297
radius                         = 5
slope_parameter                = 10
type                           = comet

[64pswiftgehrels]
absolute_magnitude             = 8.5
albedo                         = 0.1
coord_func                     = comet_orbit
dust_brightnessfactor          = 1.5
dust_lengthfactor              = 0.40000000000000002
dust_widthfactor               = 1.5
name                           = 64P/Swift-Gehrels
iau_designation                = P/1889 W1
orbit_ArgOfPericenter          = 97.1721
orbit_AscendingNode            = 299.8985
orbit_Eccentricity             = 0.688691
orbit_Epoch                    = 2460029.5
orbit_Inclination              = 8.9491
orbit_PericenterDistance       = 1.386121
orbit_TimeAtPericenter         = 2458428.206
orbit_good                     = 300
radius                         = 5
slope_parameter                = 12
type                           = comet

[66pdutoit]
absolute_magnitude             = 12
albedo                         = 0.1
coord_func                     = comet_orbit
dust_brightnessfactor          = 1.5
dust_lengthfactor              = 0.40000000000000002
dust_widthfactor               = 1.5
name                           = 66P/du Toit
iau_designation                = P/1944 K1
orbit_ArgOfPericenter          = 257.29230000000001
orbit_AscendingNode            = 21.895399999999999
orbit_Eccentricity             = 0.78680399999999995
orbit_Inclination              = 18.677900000000001
orbit_PericenterDistance       = 1.2885139999999999
orbit_TimeAtPericenter         = 2458257.7086921297
orbit_good                     = 267
radius                         = 5
slope_parameter                = 3.6
discovery                      = 1944-05-17
discoverer                     = D. du Toit
type                           = comet

[67pchuryumovgerasimenko]
absolute_magnitude             = 11
albedo                         = 0.1
coord_func                     = comet_orbit
dust_brightnessfactor          = 1.5
dust_lengthfactor              = 0.4
dust_widthfactor               = 1.5
model                          = 67P_lowres.obj
name                           = 67P/Churyumov-Gerasimenko
iau_designation                = P/1969 R1
orbit_ArgOfPericenter          = 22.1524
orbit_AscendingNode            = 36.329
orbit_Eccentricity             = 0.649899
orbit_Epoch                    = 2460029.5
orbit_Inclination              = 3.8719
orbit_PericenterDistance       = 1.210436
orbit_TimeAtPericenter         = 2459520.6579
orbit_good                     = 2510
radius                         = 5
slope_parameter                = 4
tex_map                        = comet.png
type                           = comet

[6pd%27arrest]
absolute_magnitude             = 7.5
albedo                         = 0.1
coord_func                     = comet_orbit
dust_brightnessfactor          = 1.5
dust_lengthfactor              = 0.40000000000000002
dust_widthfactor               = 1.5
name                           = 6P/d'Arrest
iau_designation                = P/1851 M1
orbit_ArgOfPericenter          = 178.08619999999999
orbit_AscendingNode            = 138.92750000000001
orbit_Eccentricity             = 0.61136000000000001
orbit_Inclination              = 19.483499999999999
orbit_PericenterDistance       = 1.360935
orbit_TimeAtPericenter         = 2457083.8382986113
orbit_good                     = 289
radius                         = 5
slope_parameter                = 16
type                           = comet

[71pclark]
absolute_magnitude             = 9.8
albedo                         = 0.1
coord_func                     = comet_orbit
dust_brightnessfactor          = 1.5
dust_lengthfactor              = 0.40000000000000002
dust_widthfactor               = 1.5
name                           = 71P/Clark
iau_designation                = P/1973 L1
orbit_ArgOfPericenter          = 209.0584
orbit_AscendingNode            = 59.3935
orbit_Eccentricity             = 0.49371
orbit_Epoch                    = 2460029.5
orbit_Inclination              = 9.4381
orbit_PericenterDistance       = 1.588814
orbit_TimeAtPericenter         = 2459967.2789
orbit_good                     = 364
radius                         = 5
slope_parameter                = 6
type                           = comet

[7pponswinnecke]
absolute_magnitude             = 10
albedo                         = 0.1
coord_func                     = comet_orbit
dust_brightnessfactor          = 1.5
dust_lengthfactor              = 0.40000000000000002
dust_widthfactor               = 1.5
name                           = 7P/Pons-Winnecke
iau_designation                = P/1858 E1
orbit_ArgOfPericenter          = 172.5378
orbit_AscendingNode            = 93.325
orbit_Eccentricity             = 0.638554
orbit_Epoch                    = 2460029.5
orbit_Inclination              = 22.3747
orbit_PericenterDistance       = 1.232374
orbit_TimeAtPericenter         = 2459361.4523
orbit_good                     = 251
radius                         = 5
slope_parameter                = 6
type                           = comet

[81pwild]
absolute_magnitude             = 7
albedo                         = 0.1
coord_func                     = comet_orbit
dust_brightnessfactor          = 1.5
dust_lengthfactor              = 0.40000000000000002
dust_widthfactor               = 1.5
name                           = 81P/Wild
iau_designation                = P/1978 A2
orbit_ArgOfPericenter          = 41.6234
orbit_AscendingNode            = 136.0984
orbit_Eccentricity             = 0.537287
orbit_Epoch                    = 2460029.5
orbit_Inclination              = 3.2364
orbit_PericenterDistance       = 1.598422
orbit_TimeAtPericenter         = 2459929.111
orbit_good                     = 366
radius                         = 5
slope_parameter                = 6
type                           = comet

[88phowell]
absolute_magnitude             = 11
albedo                         = 0.1
coord_func                     = comet_orbit
dust_brightnessfactor          = 1.5
dust_lengthfactor              = 0.40000000000000002
dust_widthfactor               = 1.5
name                           = 88P/Howell
iau_designation                = P/1981 Q1
orbit_ArgOfPericenter          = 235.9386
orbit_AscendingNode            = 56.6691
orbit_Eccentricity             = 0.563584
orbit_Epoch                    = 2460029.5
orbit_Inclination              = 4.382
orbit_PericenterDistance       = 1.355652
orbit_TimeAtPericenter         = 2459118.6133
orbit_good                     = 288
radius                         = 5
slope_parameter                = 6
type                           = comet

